[{"OBJECT_NAME":"STARLINK-31262","OBJECT_ID":"2024-017X","EPOCH":"2026-03-09T22:29:42.951552","MEAN_MOTION":15.30208163,"ECCENTRICITY":0.00016067,"INCLINATION":53.1609,"RA_OF_ASC_NODE":292.8303,"ARG_OF_PERICENTER":99.9324,"MEAN_ANOMALY":260.1858,"EPHEMERIS_TYPE":0,"CLASSIFICATION_TYPE":"U","NORAD_CAT_ID":58847,"ELEMENT_SET_NO":999,"REV_AT_EPOCH":11881,"BSTAR":-3.7448257e-5,"MEAN_MOTION_DOT":-1.469e-5,"MEAN_MOTION_DDOT":0},{"OBJECT_NAME":"CZ-6A DEB","OBJECT_ID":"2022-151QB","EPOCH":"2026-03-08T18:03:47.471328","MEAN_MOTION":15.32168285,"ECCENTRICITY":0.00205863,"INCLINATION":98.6246,"RA_OF_ASC_NODE":151.4486,"ARG_OF_PERICENTER":181.9757,"MEAN_ANOMALY":178.1404,"EPHEMERIS_TYPE":0,"CLASSIFICATION_TYPE":"U","NORAD_CAT_ID":54890,"ELEMENT_SET_NO":999,"REV_AT_EPOCH":17659,"BSTAR":0.012866954,"MEAN_MOTION_DOT":0.00424465,"MEAN_MOTION_DDOT":0}]
